00099   28.53  0.15 K105D 358.90327  146.85538   82.61902    1.54450  0.2273972  0.68451274   1.2751121    FO 111005     9  **   46 min  1.28 *** **  Find_Orb   **** Hayabusa [99]               20100613
00100   28.58  0.15 K105D 359.46164  146.23128   82.71837    1.40363  0.2012055  0.71750774   1.2357150    FO 111005     9  **   46 min  1.37 *** **  Find_Orb   **** Hayabusa [100]              20100613
00101   28.54  0.15 K105D 358.65761  147.14977   82.57734    1.60343  0.2406325  0.66789779   1.2961722    FO 111005     9  **   46 min  0.97 *** **  Find_Orb   **** Hayabusa [101]              20100613
00102   28.54  0.15 K105D 359.03036  146.71353   82.64220    1.50841  0.2205885  0.69304816   1.2646211    FO 111005     9  **   46 min  1.17 *** **  Find_Orb   **** Hayabusa [102]              20100613
00103   28.59  0.15 K105D 358.80242  147.00206   82.60623    1.54114  0.2303844  0.68059919   1.2799955    FO 111005     9  **   46 min  1.81 *** **  Find_Orb   **** Hayabusa [103]              20100613
00104   28.53  0.15 K105D 359.59928  146.05534   82.73698    1.39906  0.1974405  0.72241899   1.2301081    FO 111005     9  **   46 min  1.64 *** **  Find_Orb   **** Hayabusa [104]              20100613
00105   28.55  0.15 K105D 359.59581  146.06429   82.73837    1.39045  0.1971864  0.72270604   1.2297824    FO 111005     9  **   46 min  1.19 *** **  Find_Orb   **** Hayabusa [105]              20100613
00106   28.65  0.15 K105D 358.75944  147.08068   82.60331    1.52156  0.2303819  0.68044258   1.2801919    FO 111005     9  **   46 min  1.67 *** **  Find_Orb   **** Hayabusa [106]              20100613
00107   28.53  0.15 K105D 358.80552  146.97149   82.60305    1.56634  0.2324038  0.67821503   1.2829935    FO 111005     9  **   46 min  1.27 *** **  Find_Orb   **** Hayabusa [107]              20100613
00108   28.45  0.15 K105D 359.51680  146.11183   82.71367    1.45126  0.2031916  0.71533485   1.2382161    FO 111005     9  **   46 min  1.42 *** **  Find_Orb   **** Hayabusa [108]              20100613
00109   28.59  0.15 K105D 359.02679  146.74156   82.64579    1.48407  0.2189164  0.69501824   1.2622302    FO 111005     9  **   46 min  1.04 *** **  Find_Orb   **** Hayabusa [109]              20100613
00110   28.67  0.15 K105D 358.60878  147.27006   82.57745    1.55226  0.2381545  0.67065062   1.2926229    FO 111005     9  **   46 min  0.86 *** **  Find_Orb   **** Hayabusa [110]              20100613
00111   28.57  0.15 K105D 359.02741  146.73169   82.64370    1.49374  0.2196414  0.69415901   1.2632716    FO 111005     9  **   46 min  1.68 *** **  Find_Orb   **** Hayabusa [111]              20100613
00112   28.56  0.15 K105D 359.07794  146.66741   82.65181    1.48839  0.2176738  0.69667353   1.2602301    FO 111005     9  **   46 min  1.53 *** **  Find_Orb   **** Hayabusa [112]              20100613
00113   28.69  0.15 K105D 358.91020  146.91956   82.63289    1.46709  0.2212269  0.69186111   1.2660672    FO 111005     9  **   46 min  1.85 *** **  Find_Orb   **** Hayabusa [113]              20100613
00114   28.53  0.15 K105D 359.64761  145.99998   82.74431    1.39072  0.1957861  0.72453195   1.2277154    FO 111005     9  **   46 min  1.09 *** **  Find_Orb   **** Hayabusa [114]              20100613
00115   28.58  0.15 K105D 358.93713  146.83978   82.62910    1.51221  0.2237495  0.68896384   1.2696142    FO 111005     9  **   46 min  1.29 *** **  Find_Orb   **** Hayabusa [115]              20100613
00116   28.53  0.15 K105D 358.93115  146.82335   82.62356    1.53549  0.2259749  0.68629844   1.2728993    FO 111005     9  **   46 min  1.41 *** **  Find_Orb   **** Hayabusa [116]              20100613
00117   28.54  0.15 K105D 359.26195  146.44338   82.68033    1.46018  0.2104770  0.70584494   1.2492898    FO 111005     9  **   46 min  0.87 *** **  Find_Orb   **** Hayabusa [117]              20100613
00118   28.54  0.15 K105D 359.11754  146.61300   82.65723    1.48669  0.2165054  0.69819745   1.2583957    FO 111005     9  **   46 min  1.22 *** **  Find_Orb   **** Hayabusa [118]              20100613
00119   28.59  0.15 K105D 359.79076  145.86271   82.77609    1.33861  0.1890792  0.73292694   1.2183225    FO 111005     9  **   46 min  1.70 *** **  Find_Orb   **** Hayabusa [119]              20100613
00120   28.44  0.15 K105D 359.78889  145.79931   82.75558    1.41121  0.1937737  0.72736491   1.2245255    FO 111005     9  **   46 min  1.82 *** **  Find_Orb   **** Hayabusa [120]              20100613
00121   28.54  0.15 K105D 358.99864  146.74593   82.63483    1.51914  0.2225711  0.69057859   1.2676343    FO 111005     9  **   46 min  1.32 *** **  Find_Orb   **** Hayabusa [121]              20100613
00122   28.48  0.15 K105D 359.57307  146.06127   82.72579    1.42839  0.2001476  0.71912510   1.2338615    FO 111005     9  **   46 min  1.40 *** **  Find_Orb   **** Hayabusa [122]              20100613
00123   28.56  0.15 K105D 358.65697  147.16138   82.57898    1.59226  0.2397104  0.66898922   1.2947621    FO 111005     9  **   46 min  1.18 *** **  Find_Orb   **** Hayabusa [123]              20100613
00124   28.62  0.15 K105D 359.04513  146.73075   82.65027    1.47030  0.2172879  0.69701503   1.2598184    FO 111005     9  **   46 min  2.03 *** **  Find_Orb   **** Hayabusa [124]              20100613
00125   28.52  0.15 K105D 358.93213  146.82114   82.62443    1.53774  0.2259222  0.68636863   1.2728125    FO 111005     9  **   46 min  1.65 *** **  Find_Orb   **** Hayabusa [125]              20100613
00126   28.57  0.15 K105D 358.77617  147.02601   82.60042    1.55344  0.2324164  0.67808892   1.2831525    FO 111005     9  **   46 min  1.47 *** **  Find_Orb   **** Hayabusa [126]              20100613
00127   28.62  0.15 K105D 358.92697  146.86886   82.62998    1.49546  0.2229220  0.68990699   1.2684568    FO 111005     9  **   46 min  1.54 *** **  Find_Orb   **** Hayabusa [127]              20100613
00128   28.48  0.15 K105D 358.52002  147.29146   82.55093    1.66892  0.2513640  0.65464717   1.3136042    FO 111005     9  **   46 min  1.25 *** **  Find_Orb   **** Hayabusa [128]              20100613
00129   28.51  0.15 K105D 359.31090  146.37624   82.68608    1.46211  0.2092480  0.70746900   1.2473771    FO 111005     9  **   46 min  1.10 *** **  Find_Orb   **** Hayabusa [129]              20100613
00130   28.59  0.15 K105D 358.77792  147.03331   82.60189    1.54418  0.2315624  0.67910858   1.2818678    FO 111005     9  **   46 min  1.30 *** **  Find_Orb   **** Hayabusa [130]              20100613
00131   28.57  0.15 K105D 359.03373  146.72244   82.64453    1.49246  0.2194962  0.69435204   1.2630375    FO 111005     9  **   46 min  1.48 *** **  Find_Orb   **** Hayabusa [131]              20100613
00132   28.56  0.15 K105D 359.04800  146.70380   82.64692    1.49310  0.2189458  0.69505832   1.2621817    FO 111005     9  **   46 min  1.31 *** **  Find_Orb   **** Hayabusa [132]              20100613
00133   28.50  0.15 K105D 358.97103  146.76188   82.62866    1.54202  0.2250824  0.68750493   1.2714097    FO 111005     9  **   46 min  1.76 *** **  Find_Orb   **** Hayabusa [133]              20100613
00134   28.49  0.15 K105D 359.16466  146.53395   82.65979    1.50200  0.2163035  0.69860031   1.2579118    FO 111005     9  **   46 min  1.47 *** **  Find_Orb   **** Hayabusa [134]              20100613
00135   28.57  0.15 K105D 359.10316  146.64376   82.65729    1.47711  0.2160821  0.69865061   1.2578515    FO 111005     9  **   46 min  1.36 *** **  Find_Orb   **** Hayabusa [135]              20100613
00136   28.57  0.15 K105D 359.64502  146.01937   82.74875    1.37391  0.1946827  0.72583212   1.2262488    FO 111005     9  **   46 min  1.45 *** **  Find_Orb   **** Hayabusa [136]              20100613
00137   28.57  0.15 K105D 359.10073  146.64529   82.65630    1.47792  0.2163247  0.69835227   1.2582097    FO 111005     9  **   46 min  1.47 *** **  Find_Orb   **** Hayabusa [137]              20100613
00138   28.46  0.15 K105D 359.22187  146.45419   82.66702    1.50357  0.2147828  0.70060336   1.2555131    FO 111005     9  **   46 min  1.62 *** **  Find_Orb   **** Hayabusa [138]              20100613
00139   28.53  0.15 K105D 359.02384  146.71813   82.64047    1.51172  0.2211472  0.69236076   1.2654580    FO 111005     9  **   46 min  1.54 *** **  Find_Orb   **** Hayabusa [139]              20100613
00140   28.53  0.15 K105D 359.66665  145.97576   82.74655    1.39054  0.1953123  0.72515384   1.2270133    FO 111005     9  **   46 min  1.64 *** **  Find_Orb   **** Hayabusa [140]              20100613
00141   28.49  0.15 K105D 358.63483  147.15916   82.57136    1.62953  0.2435081  0.66440432   1.3007118    FO 111005     9  **   46 min  1.31 *** **  Find_Orb   **** Hayabusa [141]              20100613
00142   28.48  0.15 K105D 358.59698  147.19923   82.56466    1.64476  0.2462815  0.66097146   1.3052116    FO 111005     9  **   46 min  1.54 *** **  Find_Orb   **** Hayabusa [142]              20100613
00143   28.70  0.15 K105D 358.77023  147.08634   82.60743    1.49920  0.2283325  0.68291333   1.2771022    FO 111005     9  **   46 min  1.51 *** **  Find_Orb   **** Hayabusa [143]              20100613
00144   28.46  0.15 K105D 358.99118  146.72235   82.62960    1.55361  0.2253220  0.68729495   1.2716686    FO 111005     9  **   46 min  1.28 *** **  Find_Orb   **** Hayabusa [144]              20100613
00145   28.45  0.15 K105D 359.27351  146.38741   82.67276    1.50318  0.2131913  0.70266742   1.2530532    FO 111005     9  **   46 min  1.38 *** **  Find_Orb   **** Hayabusa [145]              20100613
00146   28.56  0.15 K105D 359.08812  146.65314   82.65304    1.48776  0.2174046  0.69702762   1.2598032    FO 111005     9  **   46 min  1.06 *** **  Find_Orb   **** Hayabusa [146]              20100613
00147   28.59  0.15 K105D 358.57886  147.26931   82.56729    1.59940  0.2431962  0.66455505   1.3005151    FO 111005     9  **   46 min  1.38 *** **  Find_Orb   **** Hayabusa [147]              20100613
